{
  "type": "FeatureCollection",
  "features": [
    {
      "type": "Feature",
      "properties": {
        "norad_id": 66730,
        "name": "FLOCK 4H-27",
        "group": "last-30-days",
        "lat": -0.9613534011423771,
        "lon": -113.87763070199749,
        "alt_km": 514.5092451749297,
        "timestamp": "2025-12-20T14:38:00.688845+00:00",
        "meta_object_name": "FLOCK 4H-27",
        "meta_object_id": "2025-276BS",
        "meta_epoch": "2025-12-20T04:20:51.198432",
        "meta_mean_motion": 15.18049887,
        "meta_eccentricity": 0.00010517,
        "meta_inclination": 97.4387,
        "meta_ra_of_asc_node": 65.8267,
        "meta_arg_of_pericenter": 127.9653,
        "meta_mean_anomaly": 232.1676,
        "meta_ephemeris_type": 0,
        "meta_classification_type": "U",
        "meta_norad_cat_id": 66730,
        "meta_element_set_no": 999,
        "meta_rev_at_epoch": 325,
        "meta_bstar": 0.00027493952,
        "meta_mean_motion_dot": 5.532e-05,
        "meta_mean_motion_ddot": 0,
        "tle_line1": "1 66730U 25276BS  25354.18114813  .00005532  00000+0  27494-3 0  9993",
        "tle_line2": "2 66730  97.4387  65.8267 0001051 127.9653 232.1676 15.18049887  3254"
      },
      "geometry": {
        "type": "Point",
        "coordinates": [
          -113.87763070199749,
          -0.9613534011423771
        ]
      }
    },
    {
      "type": "Feature",
      "properties": {
        "norad_id": 66731,
        "name": "FLOCK 4H-28",
        "group": "last-30-days",
        "lat": 70.90986470036856,
        "lon": -91.59848814524835,
        "alt_km": 509.9051138579689,
        "timestamp": "2025-12-20T14:38:00.688855+00:00",
        "meta_object_name": "FLOCK 4H-28",
        "meta_object_id": "2025-276BT",
        "meta_epoch": "2025-12-20T03:04:48.146592",
        "meta_mean_motion": 15.17110062,
        "meta_eccentricity": 0.00032257,
        "meta_inclination": 97.439,
        "meta_ra_of_asc_node": 65.7479,
        "meta_arg_of_pericenter": 277.1965,
        "meta_mean_anomaly": 82.8901,
        "meta_ephemeris_type": 0,
        "meta_classification_type": "U",
        "meta_norad_cat_id": 66731,
        "meta_element_set_no": 999,
        "meta_rev_at_epoch": 324,
        "meta_bstar": 0.00028643158,
        "meta_mean_motion_dot": 5.612e-05,
        "meta_mean_motion_ddot": 0,
        "tle_line1": "1 66731U 25276BT  25354.12833503  .00005612  00000+0  28643-3 0  9998",
        "tle_line2": "2 66731  97.4390  65.7479 0003225 277.1965  82.8901 15.17110062  3245"
      },
      "geometry": {
        "type": "Point",
        "coordinates": [
          -91.59848814524835,
          70.90986470036856
        ]
      }
    },
    {
      "type": "Feature",
      "properties": {
        "norad_id": 66732,
        "name": "FLOCK 4H-29",
        "group": "last-30-days",
        "lat": 60.28673569845834,
        "lon": -100.51842394435477,
        "alt_km": 509.1947569547692,
        "timestamp": "2025-12-20T14:38:00.688865+00:00",
        "meta_object_name": "FLOCK 4H-29",
        "meta_object_id": "2025-276BU",
        "meta_epoch": "2025-12-20T04:36:53.458560",
        "meta_mean_motion": 15.1727423,
        "meta_eccentricity": 0.00025031,
        "meta_inclination": 97.4513,
        "meta_ra_of_asc_node": 65.8133,
        "meta_arg_of_pericenter": 244.0915,
        "meta_mean_anomaly": 116.0061,
        "meta_ephemeris_type": 0,
        "meta_classification_type": "U",
        "meta_norad_cat_id": 66732,
        "meta_element_set_no": 999,
        "meta_rev_at_epoch": 325,
        "meta_bstar": 0.00063407941,
        "meta_mean_motion_dot": 0.00012574,
        "meta_mean_motion_ddot": 0,
        "tle_line1": "1 66732U 25276BU  25354.19228540  .00012574  00000+0  63408-3 0  9998",
        "tle_line2": "2 66732  97.4513  65.8133 0002503 244.0915 116.0061 15.17274230  3253"
      },
      "geometry": {
        "type": "Point",
        "coordinates": [
          -100.51842394435477,
          60.28673569845834
        ]
      }
    },
    {
      "type": "Feature",
      "properties": {
        "norad_id": 66733,
        "name": "FLOCK 4H-30",
        "group": "last-30-days",
        "lat": 64.53398687439001,
        "lon": -97.82437823530263,
        "alt_km": 507.39278834151264,
        "timestamp": "2025-12-20T14:38:00.688879+00:00",
        "meta_object_name": "FLOCK 4H-30",
        "meta_object_id": "2025-276BV",
        "meta_epoch": "2025-12-20T03:03:23.013216",
        "meta_mean_motion": 15.17773354,
        "meta_eccentricity": 0.00059512,
        "meta_inclination": 97.4445,
        "meta_ra_of_asc_node": 65.7654,
        "meta_arg_of_pericenter": 238.2181,
        "meta_mean_anomaly": 121.8473,
        "meta_ephemeris_type": 0,
        "meta_classification_type": "U",
        "meta_norad_cat_id": 66733,
        "meta_element_set_no": 999,
        "meta_rev_at_epoch": 324,
        "meta_bstar": 0.019368183,
        "meta_mean_motion_dot": 0.00413861,
        "meta_mean_motion_ddot": 0,
        "tle_line1": "1 66733U 25276BV  25354.12734969  .00413861  00000+0  19368-1 0  9997",
        "tle_line2": "2 66733  97.4445  65.7654 0005951 238.2181 121.8473 15.17773354  3246"
      },
      "geometry": {
        "type": "Point",
        "coordinates": [
          -97.82437823530263,
          64.53398687439001
        ]
      }
    },
    {
      "type": "Feature",
      "properties": {
        "norad_id": 66734,
        "name": "FLOCK 4H-31",
        "group": "last-30-days",
        "lat": 65.15060076980488,
        "lon": -97.39071163784891,
        "alt_km": 509.73087600252165,
        "timestamp": "2025-12-20T14:38:00.688889+00:00",
        "meta_object_name": "FLOCK 4H-31",
        "meta_object_id": "2025-276BW",
        "meta_epoch": "2025-12-20T03:03:13.238784",
        "meta_mean_motion": 15.17180172,
        "meta_eccentricity": 0.00024937,
        "meta_inclination": 97.4404,
        "meta_ra_of_asc_node": 65.7446,
        "meta_arg_of_pericenter": 291.7917,
        "meta_mean_anomaly": 68.3051,
        "meta_ephemeris_type": 0,
        "meta_classification_type": "U",
        "meta_norad_cat_id": 66734,
        "meta_element_set_no": 999,
        "meta_rev_at_epoch": 324,
        "meta_bstar": 0.00040317071,
        "meta_mean_motion_dot": 7.944e-05,
        "meta_mean_motion_ddot": 0,
        "tle_line1": "1 66734U 25276BW  25354.12723656  .00007944  00000+0  40317-3 0  9990",
        "tle_line2": "2 66734  97.4404  65.7446 0002493 291.7917  68.3051 15.17180172  3247"
      },
      "geometry": {
        "type": "Point",
        "coordinates": [
          -97.39071163784891,
          65.15060076980488
        ]
      }
    },
    {
      "type": "Feature",
      "properties": {
        "norad_id": 66735,
        "name": "FLOCK 4H-32",
        "group": "last-30-days",
        "lat": 67.46372623182863,
        "lon": -95.3967903924865,
        "alt_km": 509.8518281262377,
        "timestamp": "2025-12-20T14:38:00.688899+00:00",
        "meta_object_name": "FLOCK 4H-32",
        "meta_object_id": "2025-276BX",
        "meta_epoch": "2025-12-20T00:00:02.000160",
        "meta_mean_motion": 15.17179707,
        "meta_eccentricity": 0.0003264,
        "meta_inclination": 97.4441,
        "meta_ra_of_asc_node": 65.6376,
        "meta_arg_of_pericenter": 273.6646,
        "meta_mean_anomaly": 109.598,
        "meta_ephemeris_type": 0,
        "meta_classification_type": "U",
        "meta_norad_cat_id": 66735,
        "meta_element_set_no": 999,
        "meta_rev_at_epoch": 265,
        "meta_bstar": 0.0012750266,
        "meta_mean_motion_dot": 0.00025327,
        "meta_mean_motion_ddot": 0,
        "tle_line1": "1 66735U 25276BX  25354.00002315  .00025327  00000+0  12750-2 0  9994",
        "tle_line2": "2 66735  97.4441  65.6376 0003264 273.6646 109.5980 15.17179707  2650"
      },
      "geometry": {
        "type": "Point",
        "coordinates": [
          -95.3967903924865,
          67.46372623182863
        ]
      }
    },
    {
      "type": "Feature",
      "properties": {
        "norad_id": 66736,
        "name": "FLOCK 4H-33",
        "group": "last-30-days",
        "lat": -13.502925104662665,
        "lon": -115.52944713917776,
        "alt_km": 514.3538309029991,
        "timestamp": "2025-12-20T14:38:00.688909+00:00",
        "meta_object_name": "FLOCK 4H-33",
        "meta_object_id": "2025-276BY",
        "meta_epoch": "2025-12-20T04:17:35.897280",
        "meta_mean_motion": 15.18246372,
        "meta_eccentricity": 0.00023791,
        "meta_inclination": 97.4438,
        "meta_ra_of_asc_node": 65.8458,
        "meta_arg_of_pericenter": 165.68,
        "meta_mean_anomaly": 194.4502,
        "meta_ephemeris_type": 0,
        "meta_classification_type": "U",
        "meta_norad_cat_id": 66736,
        "meta_element_set_no": 999,
        "meta_rev_at_epoch": 325,
        "meta_bstar": 0.00030674904,
        "meta_mean_motion_dot": 6.215e-05,
        "meta_mean_motion_ddot": 0,
        "tle_line1": "1 66736U 25276BY  25354.17888770  .00006215  00000+0  30675-3 0  9992",
        "tle_line2": "2 66736  97.4438  65.8458 0002379 165.6800 194.4502 15.18246372  3252"
      },
      "geometry": {
        "type": "Point",
        "coordinates": [
          -115.52944713917776,
          -13.502925104662665
        ]
      }
    }
  ]
}